[
    {
        "Altitude(m)": 559864.0613288231,
        "Argument of Periapsis(deg)": 0.006622991110713501,
        "Eccentricity": 0.0,
        "Inclination(deg)": 53.0,
        "Latitude(deg)": 52.989597231524655,
        "Longitude(deg)": -114.57549281235853,
        "Mean Anomaly(deg)": 93.72799286757758,
        "RAAN(deg)": 249.990143368528,
        "Satellite Name": "Starlink Shell 1 1105",
        "Satellite Number": 1105,
        "Semi-Major Axis(m)": 6931778.249405717,
        "Time(s)": 190
    },
    {
        "Altitude(m)": 559850.8366251572,
        "Argument of Periapsis(deg)": 0.0069715695902247375,
        "Eccentricity": 0.0,
        "Inclination(deg)": 53.0,
        "Latitude(deg)": 52.93105091212776,
        "Longitude(deg)": -113.58357405284595,
        "Mean Anomaly(deg)": 94.35482407113432,
        "RAAN(deg)": 249.9896245984506,
        "Satellite Name": "Starlink Shell 1 1105",
        "Satellite Number": 1105,
        "Semi-Major Axis(m)": 6931778.249405717,
        "Time(s)": 200
    },
    {
        "Altitude(m)": 559835.5727816682,
        "Argument of Periapsis(deg)": 0.007320148069735974,
        "Eccentricity": 0.0,
        "Inclination(deg)": 53.0,
        "Latitude(deg)": 52.86355052120936,
        "Longitude(deg)": -112.59464985840285,
        "Mean Anomaly(deg)": 94.98165527469102,
        "RAAN(deg)": 249.9891058283731,
        "Satellite Name": "Starlink Shell 1 1105",
        "Satellite Number": 1105,
        "Semi-Major Axis(m)": 6931778.249405717,
        "Time(s)": 210
    },
    {
        "Altitude(m)": 559818.2789986402,
        "Argument of Periapsis(deg)": 0.007668726549247212,
        "Eccentricity": 0.0,
        "Inclination(deg)": 53.0,
        "Latitude(deg)": 52.78714526013974,
        "Longitude(deg)": -111.60912574032284,
        "Mean Anomaly(deg)": 95.60848647824771,
        "RAAN(deg)": 249.98858705829562,
        "Satellite Name": "Starlink Shell 1 1105",
        "Satellite Number": 1105,
        "Semi-Major Axis(m)": 6931778.249405717,
        "Time(s)": 220
    },
    {
        "Altitude(m)": 559798.965698168,
        "Argument of Periapsis(deg)": 0.00801730502875845,
        "Eccentricity": 0.0,
        "Inclination(deg)": 53.0,
        "Latitude(deg)": 52.70189039438403,
        "Longitude(deg)": -110.62739742334941,
        "Mean Anomaly(deg)": 96.23531768180446,
        "RAAN(deg)": 249.98806828821816,
        "Satellite Name": "Starlink Shell 1 1105",
        "Satellite Number": 1105,
        "Semi-Major Axis(m)": 6931778.249405717,
        "Time(s)": 230
    },
    {
        "Altitude(m)": 559777.6445190771,
        "Argument of Periapsis(deg)": 0.008365883508269684,
        "Eccentricity": 0.0,
        "Inclination(deg)": 53.0,
        "Latitude(deg)": 52.607847061132894,
        "Longitude(deg)": -109.64984933685047,
        "Mean Anomaly(deg)": 96.86214888536117,
        "RAAN(deg)": 249.9875495181407,
        "Satellite Name": "Starlink Shell 1 1105",
        "Satellite Number": 1105,
        "Semi-Major Axis(m)": 6931778.249405717,
        "Time(s)": 240
    },
    {
        "Altitude(m)": 559754.3283112455,
        "Argument of Periapsis(deg)": 0.008714461987780921,
        "Eccentricity": 0.0,
        "Inclination(deg)": 53.0,
        "Latitude(deg)": 52.505082059631064,
        "Longitude(deg)": -108.6768546921785,
        "Mean Anomaly(deg)": 97.4889800889179,
        "RAAN(deg)": 249.9870307480632,
        "Satellite Name": "Starlink Shell 1 1105",
        "Satellite Number": 1105,
        "Semi-Major Axis(m)": 6931778.249405717,
        "Time(s)": 250
    },
    {
        "Altitude(m)": 559729.0311293254,
        "Argument of Periapsis(deg)": 0.009063040467292158,
        "Eccentricity": 0.0,
        "Inclination(deg)": 53.0,
        "Latitude(deg)": 52.39366762583419,
        "Longitude(deg)": -107.70877412515236,
        "Mean Anomaly(deg)": 98.1158112924746,
        "RAAN(deg)": 249.98651197798574,
        "Satellite Name": "Starlink Shell 1 1105",
        "Satellite Number": 1105,
        "Semi-Major Axis(m)": 6931778.249405717,
        "Time(s)": 260
    },
    {
        "Altitude(m)": 559701.7682259053,
        "Argument of Periapsis(deg)": 0.009411618946803396,
        "Eccentricity": 0.0,
        "Inclination(deg)": 53.0,
        "Latitude(deg)": 52.27368119312357,
        "Longitude(deg)": -106.74595442037496,
        "Mean Anomaly(deg)": 98.7426424960313,
        "RAAN(deg)": 249.98599320790825,
        "Satellite Name": "Starlink Shell 1 1105",
        "Satellite Number": 1105,
        "Semi-Major Axis(m)": 6931778.249405717,
        "Time(s)": 270
    },
    {
        "Altitude(m)": 559672.5560440379,
        "Argument of Periapsis(deg)": 0.009760197426314633,
        "Eccentricity": 0.0,
        "Inclination(deg)": 53.0,
        "Latitude(deg)": 52.145205140776326,
        "Longitude(deg)": -105.78872883244652,
        "Mean Anomaly(deg)": 99.36947369958804,
        "RAAN(deg)": 249.98547443783076,
        "Satellite Name": "Starlink Shell 1 1105",
        "Satellite Number": 1105,
        "Semi-Major Axis(m)": 6931778.249405717,
        "Time(s)": 280
    },
    {
        "Altitude(m)": 559641.4122092504,
        "Argument of Periapsis(deg)": 0.01010877590582587,
        "Eccentricity": 0.0,
        "Inclination(deg)": 53.0,
        "Latitude(deg)": 52.008326532173854,
        "Longitude(deg)": -104.83741598166203,
        "Mean Anomaly(deg)": 99.99630490314469,
        "RAAN(deg)": 249.98495566775333,
        "Satellite Name": "Starlink Shell 1 1105",
        "Satellite Number": 1105,
        "Semi-Major Axis(m)": 6931778.249405717,
        "Time(s)": 290
    },
    {
        "Altitude(m)": 559608.3555208927,
        "Argument of Periapsis(deg)": 0.010457354385337106,
        "Eccentricity": 0.0,
        "Inclination(deg)": 53.0,
        "Latitude(deg)": 51.86313684434592,
        "Longitude(deg)": -103.89231883610594,
        "Mean Anomaly(deg)": 100.62313610670148,
        "RAAN(deg)": 249.98443689767583,
        "Satellite Name": "Starlink Shell 1 1105",
        "Satellite Number": 1105,
        "Semi-Major Axis(m)": 6931778.249405717,
        "Time(s)": 300
    },
    {
        "Altitude(m)": 559573.4059429853,
        "Argument of Periapsis(deg)": 0.010805932864848343,
        "Eccentricity": 0.0,
        "Inclination(deg)": 53.0,
        "Latitude(deg)": 51.70973169082683,
        "Longitude(deg)": -102.95372529443567,
        "Mean Anomaly(deg)": 101.24996731025819,
        "RAAN(deg)": 249.98391812759834,
        "Satellite Name": "Starlink Shell 1 1105",
        "Satellite Number": 1105,
        "Semi-Major Axis(m)": 6931778.249405717,
        "Time(s)": 310
    },
    {
        "Altitude(m)": 559536.5845944562,
        "Argument of Periapsis(deg)": 0.01115451134435958,
        "Eccentricity": 0.0,
        "Inclination(deg)": 53.0,
        "Latitude(deg)": 51.548210539546936,
        "Longitude(deg)": -102.02190734228915,
        "Mean Anomaly(deg)": 101.87679851381488,
        "RAAN(deg)": 249.98339935752094,
        "Satellite Name": "Starlink Shell 1 1105",
        "Satellite Number": 1105,
        "Semi-Major Axis(m)": 6931778.249405717,
        "Time(s)": 320
    },
    {
        "Altitude(m)": 559497.9137387966,
        "Argument of Periapsis(deg)": 0.011503089823870818,
        "Eccentricity": 0.0,
        "Inclination(deg)": 53.0,
        "Latitude(deg)": 51.37867642751446,
        "Longitude(deg)": -101.09712029370127,
        "Mean Anomaly(deg)": 102.50362971737158,
        "RAAN(deg)": 249.98288058744345,
        "Satellite Name": "Starlink Shell 1 1105",
        "Satellite Number": 1105,
        "Semi-Major Axis(m)": 6931778.249405717,
        "Time(s)": 330
    },
    {
        "Altitude(m)": 559457.4167731929,
        "Argument of Periapsis(deg)": 0.011851668303382053,
        "Eccentricity": 0.0,
        "Inclination(deg)": 53.0,
        "Latitude(deg)": 51.2012356739694,
        "Longitude(deg)": -100.17960362809917,
        "Mean Anomaly(deg)": 103.13046092092831,
        "RAAN(deg)": 249.98236181736593,
        "Satellite Name": "Starlink Shell 1 1105",
        "Satellite Number": 1105,
        "Semi-Major Axis(m)": 6931778.249405717,
        "Time(s)": 340
    },
    {
        "Altitude(m)": 559415.1182170667,
        "Argument of Periapsis(deg)": 0.012200246782893292,
        "Eccentricity": 0.0,
        "Inclination(deg)": 53.0,
        "Latitude(deg)": 51.01599759361487,
        "Longitude(deg)": -99.26958039420477,
        "Mean Anomaly(deg)": 103.75729212448506,
        "RAAN(deg)": 249.9818430472885,
        "Satellite Name": "Starlink Shell 1 1105",
        "Satellite Number": 1105,
        "Semi-Major Axis(m)": 6931778.249405717,
        "Time(s)": 350
    },
    {
        "Altitude(m)": 559371.043700057,
        "Argument of Periapsis(deg)": 0.012548825262404526,
        "Eccentricity": 0.0,
        "Inclination(deg)": 53.0,
        "Latitude(deg)": 50.82307421144476,
        "Longitude(deg)": -98.36725669020441,
        "Mean Anomaly(deg)": 104.38412332804177,
        "RAAN(deg)": 249.981324277211,
        "Satellite Name": "Starlink Shell 1 1105",
        "Satellite Number": 1105,
        "Semi-Major Axis(m)": 6931778.249405717,
        "Time(s)": 360
    },
    {
        "Altitude(m)": 559325.2199494981,
        "Argument of Periapsis(deg)": 0.012897403741915765,
        "Eccentricity": 0.0,
        "Inclination(deg)": 53.0,
        "Latitude(deg)": 50.622579980589,
        "Longitude(deg)": -97.47282272906845,
        "Mean Anomaly(deg)": 105.01095453159846,
        "RAAN(deg)": 249.98080550713354,
        "Satellite Name": "Starlink Shell 1 1105",
        "Satellite Number": 1105,
        "Semi-Major Axis(m)": 6931778.249405717,
        "Time(s)": 370
    }
]